STARLINK-31578          
1 59321U 24057B   26067.64001234  .00000396  00000+0  23923-4 0  9999
2 59321  42.9986 192.5598 0000943 263.4920  96.5824 15.27576516109684
TEVEL2-1                
1 63217U 25052H   26068.64782323  .00020683  00000+0  70600-3 0  9994
2 63217  97.3991 324.7682 0004767 104.8919 255.2849 15.30341923 54855
